{
  "type": "FeatureCollection",
  "features": [
    {
      "type": "Feature",
      "properties": {
        "norad_id": 37546,
        "name": "COSMOS 2251 DEB",
        "group": "cosmos-2251-debris",
        "lat": 37.27400387574246,
        "lon": 129.84351160961705,
        "alt_km": 628.3631146244679,
        "timestamp": "2025-12-02T23:34:15.915103+00:00",
        "meta_object_name": "COSMOS 2251 DEB",
        "meta_object_id": "1993-036BPB",
        "meta_epoch": "2025-12-01T01:57:48.654432",
        "meta_mean_motion": 14.7972634,
        "meta_eccentricity": 0.00071974,
        "meta_inclination": 74.0208,
        "meta_ra_of_asc_node": 120.9905,
        "meta_arg_of_pericenter": 150.0376,
        "meta_mean_anomaly": 210.1213,
        "meta_ephemeris_type": 0,
        "meta_classification_type": "U",
        "meta_norad_cat_id": 37546,
        "meta_element_set_no": 999,
        "meta_rev_at_epoch": 65715,
        "meta_bstar": 0.0028528218,
        "meta_mean_motion_dot": 0.0002149,
        "meta_mean_motion_ddot": 0,
        "tle_line1": "1 37546U 93036BPB 25335.08181313  .00021490  00000+0  28528-2 0  9991",
        "tle_line2": "2 37546  74.0208 120.9905 0007197 150.0376 210.1213 14.79726340657157"
      },
      "geometry": {
        "type": "Point",
        "coordinates": [
          129.84351160961705,
          37.27400387574246
        ]
      }
    },
    {
      "type": "Feature",
      "properties": {
        "norad_id": 37959,
        "name": "COSMOS 2251 DEB",
        "group": "cosmos-2251-debris",
        "lat": -64.86964213903526,
        "lon": 37.85595725551953,
        "alt_km": 691.7216741466273,
        "timestamp": "2025-12-02T23:34:15.915114+00:00",
        "meta_object_name": "COSMOS 2251 DEB",
        "meta_object_id": "1993-036BPJ",
        "meta_epoch": "2025-12-01T13:23:10.736160",
        "meta_mean_motion": 14.58009519,
        "meta_eccentricity": 0.00585454,
        "meta_inclination": 74.0106,
        "meta_ra_of_asc_node": 78.2498,
        "meta_arg_of_pericenter": 223.2236,
        "meta_mean_anomaly": 152.6035,
        "meta_ephemeris_type": 0,
        "meta_classification_type": "U",
        "meta_norad_cat_id": 37959,
        "meta_element_set_no": 999,
        "meta_rev_at_epoch": 79964,
        "meta_bstar": 0.00093616583,
        "meta_mean_motion_dot": 4.376e-05,
        "meta_mean_motion_ddot": 0,
        "tle_line1": "1 37959U 93036BPJ 25335.55776315  .00004376  00000+0  93617-3 0  9999",
        "tle_line2": "2 37959  74.0106  78.2498 0058545 223.2236 152.6035 14.58009519799647"
      },
      "geometry": {
        "type": "Point",
        "coordinates": [
          37.85595725551953,
          -64.86964213903526
        ]
      }
    },
    {
      "type": "Feature",
      "properties": {
        "norad_id": 37960,
        "name": "COSMOS 2251 DEB",
        "group": "cosmos-2251-debris",
        "lat": 64.98535582546289,
        "lon": -13.77949562444181,
        "alt_km": 934.6415390920856,
        "timestamp": "2025-12-02T23:34:15.915124+00:00",
        "meta_object_name": "COSMOS 2251 DEB",
        "meta_object_id": "1993-036BPK",
        "meta_epoch": "2025-12-01T21:26:55.399200",
        "meta_mean_motion": 14.07801052,
        "meta_eccentricity": 0.02498308,
        "meta_inclination": 74.0589,
        "meta_ra_of_asc_node": 205.8992,
        "meta_arg_of_pericenter": 227.2395,
        "meta_mean_anomaly": 130.7486,
        "meta_ephemeris_type": 0,
        "meta_classification_type": "U",
        "meta_norad_cat_id": 37960,
        "meta_element_set_no": 999,
        "meta_rev_at_epoch": 77253,
        "meta_bstar": 0.0010377763,
        "meta_mean_motion_dot": 2.314e-05,
        "meta_mean_motion_ddot": 0,
        "tle_line1": "1 37960U 93036BPK 25335.89369675  .00002314  00000+0  10378-2 0  9997",
        "tle_line2": "2 37960  74.0589 205.8992 0249830 227.2395 130.7486 14.07801052772532"
      },
      "geometry": {
        "type": "Point",
        "coordinates": [
          -13.77949562444181,
          64.98535582546289
        ]
      }
    },
    {
      "type": "Feature",
      "properties": {
        "norad_id": 37961,
        "name": "COSMOS 2251 DEB",
        "group": "cosmos-2251-debris",
        "lat": 0.5543648516974843,
        "lon": 155.81692355419477,
        "alt_km": 718.6280508752434,
        "timestamp": "2025-12-02T23:34:15.915136+00:00",
        "meta_object_name": "COSMOS 2251 DEB",
        "meta_object_id": "1993-036BPL",
        "meta_epoch": "2025-12-01T04:44:47.787648",
        "meta_mean_motion": 14.57792656,
        "meta_eccentricity": 0.0041244,
        "meta_inclination": 74.04,
        "meta_ra_of_asc_node": 159.049,
        "meta_arg_of_pericenter": 241.5465,
        "meta_mean_anomaly": 118.1542,
        "meta_ephemeris_type": 0,
        "meta_classification_type": "U",
        "meta_norad_cat_id": 37961,
        "meta_element_set_no": 999,
        "meta_rev_at_epoch": 79897,
        "meta_bstar": 0.001072,
        "meta_mean_motion_dot": 4.934e-05,
        "meta_mean_motion_ddot": 0,
        "tle_line1": "1 37961U 93036BPL 25335.19777532  .00004934  00000+0  10720-2 0  9997",
        "tle_line2": "2 37961  74.0400 159.0490 0041244 241.5465 118.1542 14.57792656798977"
      },
      "geometry": {
        "type": "Point",
        "coordinates": [
          155.81692355419477,
          0.5543648516974843
        ]
      }
    },
    {
      "type": "Feature",
      "properties": {
        "norad_id": 37966,
        "name": "COSMOS 2251 DEB",
        "group": "cosmos-2251-debris",
        "lat": 7.985530857588952,
        "lon": -106.87226494206462,
        "alt_km": 537.207605937605,
        "timestamp": "2025-12-02T23:34:15.915146+00:00",
        "meta_object_name": "COSMOS 2251 DEB",
        "meta_object_id": "1993-036BPR",
        "meta_epoch": "2025-12-02T10:49:19.602048",
        "meta_mean_motion": 15.10966833,
        "meta_eccentricity": 0.0008446,
        "meta_inclination": 73.9763,
        "meta_ra_of_asc_node": 251.9188,
        "meta_arg_of_pericenter": 125.6609,
        "meta_mean_anomaly": 234.5371,
        "meta_ephemeris_type": 0,
        "meta_classification_type": "U",
        "meta_norad_cat_id": 37966,
        "meta_element_set_no": 999,
        "meta_rev_at_epoch": 85187,
        "meta_bstar": 0.003674,
        "meta_mean_motion_dot": 0.00061866,
        "meta_mean_motion_ddot": 0,
        "tle_line1": "1 37966U 93036BPR 25336.45092132  .00061866  00000+0  36740-2 0  9995",
        "tle_line2": "2 37966  73.9763 251.9188 0008446 125.6609 234.5371 15.10966833851879"
      },
      "geometry": {
        "type": "Point",
        "coordinates": [
          -106.87226494206462,
          7.985530857588952
        ]
      }
    },
    {
      "type": "Feature",
      "properties": {
        "norad_id": 37967,
        "name": "COSMOS 2251 DEB",
        "group": "cosmos-2251-debris",
        "lat": 23.521380159155967,
        "lon": 162.624770289315,
        "alt_km": 751.6442281711643,
        "timestamp": "2025-12-02T23:34:15.915157+00:00",
        "meta_object_name": "COSMOS 2251 DEB",
        "meta_object_id": "1993-036BPS",
        "meta_epoch": "2025-12-02T11:47:23.910144",
        "meta_mean_motion": 14.40349556,
        "meta_eccentricity": 0.0150739,
        "meta_inclination": 74.0138,
        "meta_ra_of_asc_node": 156.3658,
        "meta_arg_of_pericenter": 297.3618,
        "meta_mean_anomaly": 61.2263,
        "meta_ephemeris_type": 0,
        "meta_classification_type": "U",
        "meta_norad_cat_id": 37967,
        "meta_element_set_no": 999,
        "meta_rev_at_epoch": 64588,
        "meta_bstar": 0.0016041,
        "meta_mean_motion_dot": 5.794e-05,
        "meta_mean_motion_ddot": 0,
        "tle_line1": "1 37967U 93036BPS 25336.49124896  .00005794  00000+0  16041-2 0  9993",
        "tle_line2": "2 37967  74.0138 156.3658 0150739 297.3618  61.2263 14.40349556645884"
      },
      "geometry": {
        "type": "Point",
        "coordinates": [
          162.624770289315,
          23.521380159155967
        ]
      }
    },
    {
      "type": "Feature",
      "properties": {
        "norad_id": 37968,
        "name": "COSMOS 2251 DEB",
        "group": "cosmos-2251-debris",
        "lat": -47.01449676336319,
        "lon": 128.97887707711635,
        "alt_km": 629.0125118609358,
        "timestamp": "2025-12-02T23:34:15.915167+00:00",
        "meta_object_name": "COSMOS 2251 DEB",
        "meta_object_id": "1993-036BPT",
        "meta_epoch": "2025-12-01T14:32:40.112448",
        "meta_mean_motion": 15.00143436,
        "meta_eccentricity": 0.00809552,
        "meta_inclination": 73.9999,
        "meta_ra_of_asc_node": 293.8509,
        "meta_arg_of_pericenter": 52.3614,
        "meta_mean_anomaly": 308.4882,
        "meta_ephemeris_type": 0,
        "meta_classification_type": "U",
        "meta_norad_cat_id": 37968,
        "meta_element_set_no": 999,
        "meta_rev_at_epoch": 60052,
        "meta_bstar": 0.00099024545,
        "meta_mean_motion_dot": 0.00013234,
        "meta_mean_motion_ddot": 0,
        "tle_line1": "1 37968U 93036BPT 25335.60601982  .00013234  00000+0  99025-3 0  9994",
        "tle_line2": "2 37968  73.9999 293.8509 0080955  52.3614 308.4882 15.00143436600528"
      },
      "geometry": {
        "type": "Point",
        "coordinates": [
          128.97887707711635,
          -47.01449676336319
        ]
      }
    }
  ]
}